[{"OBJECT_NAME":"STARLINK-5500","OBJECT_ID":"2023-021G","EPOCH":"2026-03-09T17:27:52.068672","MEAN_MOTION":14.98333103,"ECCENTRICITY":0.00021815,"INCLINATION":70.0005,"RA_OF_ASC_NODE":204.3682,"ARG_OF_PERICENTER":274.385,"MEAN_ANOMALY":85.706,"EPHEMERIS_TYPE":0,"CLASSIFICATION_TYPE":"U","NORAD_CAT_ID":55634,"ELEMENT_SET_NO":999,"REV_AT_EPOCH":16829,"BSTAR":3.8882112e-5,"MEAN_MOTION_DOT":3.71e-6,"MEAN_MOTION_DDOT":0},{"OBJECT_NAME":"IRIDIUM 33 DEB","OBJECT_ID":"1997-051PF","EPOCH":"2026-03-08T20:08:48.628608","MEAN_MOTION":15.0410284,"ECCENTRICITY":0.00301759,"INCLINATION":86.2075,"RA_OF_ASC_NODE":10.7469,"ARG_OF_PERICENTER":217.121,"MEAN_ANOMALY":142.7938,"EPHEMERIS_TYPE":0,"CLASSIFICATION_TYPE":"U","NORAD_CAT_ID":35080,"ELEMENT_SET_NO":999,"REV_AT_EPOCH":70973,"BSTAR":0.01054144,"MEAN_MOTION_DOT":0.00150308,"MEAN_MOTION_DDOT":0}]
